[{"OBJECT_NAME":"STARLINK-5595","OBJECT_ID":"2023-028AA","EPOCH":"2026-03-09T20:28:13.412064","MEAN_MOTION":14.98334738,"ECCENTRICITY":0.00031685,"INCLINATION":69.9996,"RA_OF_ASC_NODE":224.2008,"ARG_OF_PERICENTER":270.0112,"MEAN_ANOMALY":90.0684,"EPHEMERIS_TYPE":0,"CLASSIFICATION_TYPE":"U","NORAD_CAT_ID":55765,"ELEMENT_SET_NO":999,"REV_AT_EPOCH":16655,"BSTAR":3.1282084e-5,"MEAN_MOTION_DOT":2.8e-6,"MEAN_MOTION_DDOT":0},{"OBJECT_NAME":"CZ-6A DEB","OBJECT_ID":"2022-151CX","EPOCH":"2026-03-09T21:16:17.872608","MEAN_MOTION":15.11183333,"ECCENTRICITY":0.00647114,"INCLINATION":99.0278,"RA_OF_ASC_NODE":217.0514,"ARG_OF_PERICENTER":197.6419,"MEAN_ANOMALY":162.256,"EPHEMERIS_TYPE":0,"CLASSIFICATION_TYPE":"U","NORAD_CAT_ID":54352,"ELEMENT_SET_NO":999,"REV_AT_EPOCH":10537,"BSTAR":0.0059033487,"MEAN_MOTION_DOT":0.00105485,"MEAN_MOTION_DDOT":0}]
